IRIDIUM 119             
1 42959U 17061E   24261.58197604  .00000091  00000+0  25527-4 0  9993
2 42959  86.3926 291.6949 0001994  93.1773 266.9651 14.34214279363428
IRIDIUM 107             
1 42960U 17061F   24261.88007922  .00000669  00000+0  23164-3 0  9996
2 42960  86.3925 291.5876 0001968  96.8770 263.2649 14.34217130363476
IRIDIUM 132             
1 42961U 17061G   24261.60734164  .00000979  00000+0  34254-3 0  9998
2 42961  86.3927 291.6859 0002026 100.8369 259.3055 14.34218713363438
IRIDIUM 136             
1 42962U 17061H   24261.63904338  .00001430  00000+0  50320-3 0  9999
2 42962  86.3926 291.6761 0002091  89.2460 270.8976 14.34228698363459
IRIDIUM 139             
1 42963U 17061J   24261.57563046  .00001468  00000+0  51713-3 0  9998
2 42963  86.3928 291.7543 0001965  99.4903 260.6515 14.34220014363455
IRIDIUM 135             
1 43070U 17083A   24261.95568032  .00000787  00000+0  27381-3 0  9991
2 43070  86.3968 228.2779 0002691  88.8323 271.3181 14.34215392352819
IRIDIUM 138             
1 43071U 17083B   24261.91128523  .00000947  00000+0  33122-3 0  9993
2 43071  86.3955 228.0024 0002183  75.3915 284.7522 14.34215918352799
